[{"OBJECT_NAME":"STARLINK-30379","OBJECT_ID":"2023-138D","EPOCH":"2026-03-09T22:00:01.999584","MEAN_MOTION":15.26724655,"ECCENTRICITY":0.00018373,"INCLINATION":43.0012,"RA_OF_ASC_NODE":232.8545,"ARG_OF_PERICENTER":282.9142,"MEAN_ANOMALY":75.3633,"EPHEMERIS_TYPE":0,"CLASSIFICATION_TYPE":"U","NORAD_CAT_ID":57811,"ELEMENT_SET_NO":999,"REV_AT_EPOCH":567,"BSTAR":0.002562654,"MEAN_MOTION_DOT":0.00069095,"MEAN_MOTION_DDOT":0},{"OBJECT_NAME":"VSP ROSE","OBJECT_ID":"2024-043AC","EPOCH":"2026-03-09T21:48:06.922944","MEAN_MOTION":15.27746075,"ECCENTRICITY":0.00099339,"INCLINATION":97.5443,"RA_OF_ASC_NODE":203.927,"ARG_OF_PERICENTER":232.2702,"MEAN_ANOMALY":127.7637,"EPHEMERIS_TYPE":0,"CLASSIFICATION_TYPE":"U","NORAD_CAT_ID":59124,"ELEMENT_SET_NO":999,"REV_AT_EPOCH":11182,"BSTAR":0.00025731354,"MEAN_MOTION_DOT":6.907e-5,"MEAN_MOTION_DDOT":0}]
